STARLINK-31126          
1 58675U 23211J   26068.06041162  .00000160  00000+0  15355-4 0  9991
2 58675  43.0014  88.3695 0001584 283.5016  76.5659 15.27578005122370
FLOCK 4G-21             
1 62651U 25009AU  26068.19487675  .00013648  00000+0  49619-3 0  9998
2 62651  97.4032 151.1274 0000465 329.5782  30.5431 15.28381075 63677
